ONEWEB-0580             
1 54648U 22166G   26149.77063978  .00000026  00000+0  31650-4 0  9999
2 54648  87.9257 247.6455 0002410  96.7660 263.3748 13.21826255169117
ONEWEB-0582             
1 54649U 22166H   26149.73699995 -.00000027  00000+0 -96380-4 0  9994
2 54649  87.9256 247.6450 0002404  94.5760 265.5649 13.21824826169084
ONEWEB-0583             
1 54650U 22166J   26149.74877671  .00000030  00000+0  40150-4 0  9992
2 54650  87.9255 247.6660 0002099  98.1034 262.0338 13.21825287169092
ONEWEB-0584             
1 54651U 22166K   26149.76893699  .00000020  00000+0  15772-4 0  9994
2 54651  87.9255 247.6478 0002128 100.0089 260.1285 13.21824285169082
ONEWEB-0585             
1 54652U 22166L   26149.71681303  .00000006  00000+0 -16939-4 0  9998
2 54652  87.9258 247.6447 0001845 102.5429 257.5912 13.21825503169083
ONEWEB-0586             
1 54653U 22166M   26149.73025228 -.00000043  00000+0 -13461-3 0  9997
2 54653  87.9257 247.6673 0002108  96.1059 264.0315 13.21827940169081
ONEWEB-0587             
1 54654U 22166N   26149.74035132  .00000004  00000+0 -21567-4 0  9997
2 54654  87.9266 247.6373 0001724 107.4467 252.6855 13.21827015169244
ONEWEB-0589             
1 54655U 22166P   26149.72688911 -.00000035  00000+0 -11569-3 0  9990
2 54655  87.9253 247.6546 0002808  92.8043 267.3412 13.21827785169105
ONEWEB-0590             
1 54656U 22166Q   26150.20618039  .00000069  00000+0  13645-3 0  9992
2 54656  87.9263 247.5473 0002317 109.5962 250.5422 13.21825728169151
ONEWEB-0591             
1 54657U 22166R   26149.76391617  .00000057  00000+0  10766-3 0  9990
2 54657  87.9254 247.6518 0002053 101.2919 258.8446 13.21824927169125
ONEWEB-0592             
1 54658U 22166S   26149.76728088 -.00000019  00000+0 -76741-4 0  9993
2 54658  87.9264 247.6275 0002003  99.9516 260.1845 13.21825115169004
ONEWEB-0593             
1 54659U 22166T   26149.78913725 -.00000019  00000+0 -76686-4 0  9998
2 54659  87.9256 247.6364 0002032  95.3019 264.8347 13.21826560169110
ONEWEB-0594             
1 54660U 22166U   26149.73361553 -.00000006  00000+0 -46959-4 0  9997
2 54660  87.9254 247.6640 0001907 101.1174 259.0175 13.21827846169129
ONEWEB-0595             
1 54661U 22166V   26149.71008122 -.00000015  00000+0 -67347-4 0  9990
2 54661  87.9263 247.6477 0001884 106.8206 253.3135 13.21825949169091
ONEWEB-0596             
1 54662U 22166W   26149.76055024  .00000062  00000+0  11905-3 0  9997
2 54662  87.9256 247.6503 0001956 102.8627 257.2726 13.21825424169106
ONEWEB-0597             
1 54663U 22166X   26149.74204441  .00000020  00000+0  17985-4 0  9994
2 54663  87.9254 247.6575 0002083  97.6406 262.4965 13.21824938169104
