[{"OBJECT_NAME":"ONEWEB-0580","OBJECT_ID":"2022-166G","EPOCH":"2026-05-29T18:29:43.276992","MEAN_MOTION":13.21826255,"ECCENTRICITY":0.000241,"INCLINATION":87.9257,"RA_OF_ASC_NODE":247.6455,"ARG_OF_PERICENTER":96.766,"MEAN_ANOMALY":263.3748,"EPHEMERIS_TYPE":0,"CLASSIFICATION_TYPE":"U","NORAD_CAT_ID":54648,"ELEMENT_SET_NO":999,"REV_AT_EPOCH":16911,"BSTAR":3.1650000000000004e-05,"MEAN_MOTION_DOT":2.6e-07,"MEAN_MOTION_DDOT":0.0},{"OBJECT_NAME":"ONEWEB-0582","OBJECT_ID":"2022-166H","EPOCH":"2026-05-29T17:41:16.795680","MEAN_MOTION":13.21824826,"ECCENTRICITY":0.0002404,"INCLINATION":87.9256,"RA_OF_ASC_NODE":247.645,"ARG_OF_PERICENTER":94.576,"MEAN_ANOMALY":265.5649,"EPHEMERIS_TYPE":0,"CLASSIFICATION_TYPE":"U","NORAD_CAT_ID":54649,"ELEMENT_SET_NO":999,"REV_AT_EPOCH":16908,"BSTAR":-9.638000000000001e-05,"MEAN_MOTION_DOT":-2.7e-07,"MEAN_MOTION_DDOT":0.0},{"OBJECT_NAME":"ONEWEB-0583","OBJECT_ID":"2022-166J","EPOCH":"2026-05-29T17:58:14.307744","MEAN_MOTION":13.21825287,"ECCENTRICITY":0.0002099,"INCLINATION":87.9255,"RA_OF_ASC_NODE":247.666,"ARG_OF_PERICENTER":98.1034,"MEAN_ANOMALY":262.0338,"EPHEMERIS_TYPE":0,"CLASSIFICATION_TYPE":"U","NORAD_CAT_ID":54650,"ELEMENT_SET_NO":999,"REV_AT_EPOCH":16909,"BSTAR":4.015000000000001e-05,"MEAN_MOTION_DOT":3e-07,"MEAN_MOTION_DDOT":0.0},{"OBJECT_NAME":"ONEWEB-0584","OBJECT_ID":"2022-166K","EPOCH":"2026-05-29T18:27:16.155936","MEAN_MOTION":13.21824285,"ECCENTRICITY":0.0002128,"INCLINATION":87.9255,"RA_OF_ASC_NODE":247.6478,"ARG_OF_PERICENTER":100.0089,"MEAN_ANOMALY":260.1285,"EPHEMERIS_TYPE":0,"CLASSIFICATION_TYPE":"U","NORAD_CAT_ID":54651,"ELEMENT_SET_NO":999,"REV_AT_EPOCH":16908,"BSTAR":1.5772e-05,"MEAN_MOTION_DOT":2e-07,"MEAN_MOTION_DDOT":0.0},{"OBJECT_NAME":"ONEWEB-0585","OBJECT_ID":"2022-166L","EPOCH":"2026-05-29T17:12:12.645792","MEAN_MOTION":13.21825503,"ECCENTRICITY":0.0001845,"INCLINATION":87.9258,"RA_OF_ASC_NODE":247.6447,"ARG_OF_PERICENTER":102.5429,"MEAN_ANOMALY":257.5912,"EPHEMERIS_TYPE":0,"CLASSIFICATION_TYPE":"U","NORAD_CAT_ID":54652,"ELEMENT_SET_NO":999,"REV_AT_EPOCH":16908,"BSTAR":-1.6939e-05,"MEAN_MOTION_DOT":6e-08,"MEAN_MOTION_DDOT":0.0},{"OBJECT_NAME":"ONEWEB-0586","OBJECT_ID":"2022-166M","EPOCH":"2026-05-29T17:31:33.796992","MEAN_MOTION":13.2182794,"ECCENTRICITY":0.0002108,"INCLINATION":87.9257,"RA_OF_ASC_NODE":247.6673,"ARG_OF_PERICENTER":96.1059,"MEAN_ANOMALY":264.0315,"EPHEMERIS_TYPE":0,"CLASSIFICATION_TYPE":"U","NORAD_CAT_ID":54653,"ELEMENT_SET_NO":999,"REV_AT_EPOCH":16908,"BSTAR":-0.00013461000000000001,"MEAN_MOTION_DOT":-4.3e-07,"MEAN_MOTION_DDOT":0.0},{"OBJECT_NAME":"ONEWEB-0587","OBJECT_ID":"2022-166N","EPOCH":"2026-05-29T17:46:06.354048","MEAN_MOTION":13.21827015,"ECCENTRICITY":0.0001724,"INCLINATION":87.9266,"RA_OF_ASC_NODE":247.6373,"ARG_OF_PERICENTER":107.4467,"MEAN_ANOMALY":252.6855,"EPHEMERIS_TYPE":0,"CLASSIFICATION_TYPE":"U","NORAD_CAT_ID":54654,"ELEMENT_SET_NO":999,"REV_AT_EPOCH":16924,"BSTAR":-2.1567000000000002e-05,"MEAN_MOTION_DOT":4e-08,"MEAN_MOTION_DDOT":0.0},{"OBJECT_NAME":"ONEWEB-0589","OBJECT_ID":"2022-166P","EPOCH":"2026-05-29T17:26:43.219104","MEAN_MOTION":13.21827785,"ECCENTRICITY":0.0002808,"INCLINATION":87.9253,"RA_OF_ASC_NODE":247.6546,"ARG_OF_PERICENTER":92.8043,"MEAN_ANOMALY":267.3412,"EPHEMERIS_TYPE":0,"CLASSIFICATION_TYPE":"U","NORAD_CAT_ID":54655,"ELEMENT_SET_NO":999,"REV_AT_EPOCH":16910,"BSTAR":-0.00011569,"MEAN_MOTION_DOT":-3.5e-07,"MEAN_MOTION_DDOT":0.0},{"OBJECT_NAME":"ONEWEB-0590","OBJECT_ID":"2022-166Q","EPOCH":"2026-05-30T04:56:53.985696","MEAN_MOTION":13.21825728,"ECCENTRICITY":0.0002317,"INCLINATION":87.9263,"RA_OF_ASC_NODE":247.5473,"ARG_OF_PERICENTER":109.5962,"MEAN_ANOMALY":250.5422,"EPHEMERIS_TYPE":0,"CLASSIFICATION_TYPE":"U","NORAD_CAT_ID":54656,"ELEMENT_SET_NO":999,"REV_AT_EPOCH":16915,"BSTAR":0.00013644999999999998,"MEAN_MOTION_DOT":6.9e-07,"MEAN_MOTION_DDOT":0.0},{"OBJECT_NAME":"ONEWEB-0591","OBJECT_ID":"2022-166R","EPOCH":"2026-05-29T18:20:02.357088","MEAN_MOTION":13.21824927,"ECCENTRICITY":0.0002053,"INCLINATION":87.9254,"RA_OF_ASC_NODE":247.6518,"ARG_OF_PERICENTER":101.2919,"MEAN_ANOMALY":258.8446,"EPHEMERIS_TYPE":0,"CLASSIFICATION_TYPE":"U","NORAD_CAT_ID":54657,"ELEMENT_SET_NO":999,"REV_AT_EPOCH":16912,"BSTAR":0.00010766000000000001,"MEAN_MOTION_DOT":5.7e-07,"MEAN_MOTION_DDOT":0.0},{"OBJECT_NAME":"ONEWEB-0592","OBJECT_ID":"2022-166S","EPOCH":"2026-05-29T18:24:53.068032","MEAN_MOTION":13.21825115,"ECCENTRICITY":0.0002003,"INCLINATION":87.9264,"RA_OF_ASC_NODE":247.6275,"ARG_OF_PERICENTER":99.9516,"MEAN_ANOMALY":260.1845,"EPHEMERIS_TYPE":0,"CLASSIFICATION_TYPE":"U","NORAD_CAT_ID":54658,"ELEMENT_SET_NO":999,"REV_AT_EPOCH":16900,"BSTAR":-7.6741e-05,"MEAN_MOTION_DOT":-1.9e-07,"MEAN_MOTION_DDOT":0.0},{"OBJECT_NAME":"ONEWEB-0593","OBJECT_ID":"2022-166T","EPOCH":"2026-05-29T18:56:21.458400","MEAN_MOTION":13.2182656,"ECCENTRICITY":0.0002032,"INCLINATION":87.9256,"RA_OF_ASC_NODE":247.6364,"ARG_OF_PERICENTER":95.3019,"MEAN_ANOMALY":264.8347,"EPHEMERIS_TYPE":0,"CLASSIFICATION_TYPE":"U","NORAD_CAT_ID":54659,"ELEMENT_SET_NO":999,"REV_AT_EPOCH":16911,"BSTAR":-7.6686e-05,"MEAN_MOTION_DOT":-1.9e-07,"MEAN_MOTION_DDOT":0.0},{"OBJECT_NAME":"ONEWEB-0594","OBJECT_ID":"2022-166U","EPOCH":"2026-05-29T17:36:24.381792","MEAN_MOTION":13.21827846,"ECCENTRICITY":0.0001907,"INCLINATION":87.9254,"RA_OF_ASC_NODE":247.664,"ARG_OF_PERICENTER":101.1174,"MEAN_ANOMALY":259.0175,"EPHEMERIS_TYPE":0,"CLASSIFICATION_TYPE":"U","NORAD_CAT_ID":54660,"ELEMENT_SET_NO":999,"REV_AT_EPOCH":16912,"BSTAR":-4.6959e-05,"MEAN_MOTION_DOT":-6e-08,"MEAN_MOTION_DDOT":0.0},{"OBJECT_NAME":"ONEWEB-0595","OBJECT_ID":"2022-166V","EPOCH":"2026-05-29T17:02:31.017408","MEAN_MOTION":13.21825949,"ECCENTRICITY":0.0001884,"INCLINATION":87.9263,"RA_OF_ASC_NODE":247.6477,"ARG_OF_PERICENTER":106.8206,"MEAN_ANOMALY":253.3135,"EPHEMERIS_TYPE":0,"CLASSIFICATION_TYPE":"U","NORAD_CAT_ID":54661,"ELEMENT_SET_NO":999,"REV_AT_EPOCH":16909,"BSTAR":-6.7347e-05,"MEAN_MOTION_DOT":-1.5e-07,"MEAN_MOTION_DDOT":0.0},{"OBJECT_NAME":"ONEWEB-0596","OBJECT_ID":"2022-166W","EPOCH":"2026-05-29T18:15:11.540736","MEAN_MOTION":13.21825424,"ECCENTRICITY":0.0001956,"INCLINATION":87.9256,"RA_OF_ASC_NODE":247.6503,"ARG_OF_PERICENTER":102.8627,"MEAN_ANOMALY":257.2726,"EPHEMERIS_TYPE":0,"CLASSIFICATION_TYPE":"U","NORAD_CAT_ID":54662,"ELEMENT_SET_NO":999,"REV_AT_EPOCH":16910,"BSTAR":0.00011905000000000001,"MEAN_MOTION_DOT":6.2e-07,"MEAN_MOTION_DDOT":0.0},{"OBJECT_NAME":"ONEWEB-0597","OBJECT_ID":"2022-166X","EPOCH":"2026-05-29T17:48:32.637024","MEAN_MOTION":13.21824938,"ECCENTRICITY":0.0002083,"INCLINATION":87.9254,"RA_OF_ASC_NODE":247.6575,"ARG_OF_PERICENTER":97.6406,"MEAN_ANOMALY":262.4965,"EPHEMERIS_TYPE":0,"CLASSIFICATION_TYPE":"U","NORAD_CAT_ID":54663,"ELEMENT_SET_NO":999,"REV_AT_EPOCH":16910,"BSTAR":1.7985e-05,"MEAN_MOTION_DOT":2e-07,"MEAN_MOTION_DDOT":0.0}]